<?xml version="1.0" encoding="UTF-8"?><?xml-stylesheet type="text/xsl" href="//powderblue-gaur-774652.hostingersite.com/main-sitemap.xsl"?>
<kml xmlns="http://www.opengis.net/kml/2.2" xmlns:atom="http://www.w3.org/2005/Atom">
	<Document>
		<name>Locations for Zoot Web Agency</name>
		<open>1</open>
		<Folder>
			<atom:link href="https://powderblue-gaur-774652.hostingersite.com" />
			<Placemark>
				<name><![CDATA[Zoot Web Agency]]></name>
				<description><![CDATA[ - Top Rated Digital Marketing Agency]]></description>
				<address><![CDATA[U 3069, Akshar Business Park, Janta Market Rd, opposite APMC Fruits and Vegetable Market, Sector 25, Vashi, 400703, Maharashtra, Navi Mumbai]]></address>
				<phoneNumber><![CDATA[+91-908-272-8185]]></phoneNumber>
				<atom:link href="https://powderblue-gaur-774652.hostingersite.com"/>
				<LookAt>
					<altitude>0</altitude>
					<range></range>
					<tilt>0</tilt>
				</LookAt>
				<Point>
				</Point>
			</Placemark>
		</Folder>
	</Document>
</kml>

<!-- XML Sitemap generated by Rank Math SEO Plugin (c) Rank Math - rankmath.com -->